BEIDOU-2 IGSO-1 (C06)   
1 36828U 10036A   25304.05530686 -.00000076  00000+0  00000+0 0  9996
2 36828  54.2774 165.0362 0050978 216.1024 144.9368  1.00288682 55804
BEIDOU-2 G4 (C04)       
1 37210U 10057A   25304.21535615 -.00000099  00000+0  00000+0 0  9995
2 37210   3.0743  70.0561 0009941 178.7155  28.5134  1.00273127 54991
BEIDOU-2 IGSO-2 (C07)   
1 37256U 10068A   25295.62146750 -.00000196  00000+0  00000+0 0  9997
2 37256  47.9774 274.7760 0047363 217.7614 226.5684  1.00248503 54417
BEIDOU-2 IGSO-3 (C08)   
1 37384U 11013A   25303.74096282 -.00000181  00000+0  00000+0 0  9991
2 37384  62.0863  42.3298 0036395 183.3876 187.9873  1.00281133 53361
BEIDOU-2 IGSO-4 (C09)   
1 37763U 11038A   25303.60384433  .00000018  00000+0  00000+0 0  9990
2 37763  54.5782 167.7332 0147912 230.3723 310.8961  1.00290401 52341
BEIDOU-2 IGSO-5 (C10)   
1 37948U 11073A   25303.74798928 -.00000139  00000+0  00000+0 0  9992
2 37948  48.1022 274.3868 0109155 222.0901 265.7630  1.00256227 50835
BEIDOU-2 G5 (C05)       
1 38091U 12008A   25304.12385657  .00000069  00000+0  00000+0 0  9996
2 38091   2.9981  70.8357 0009898 221.2101 210.9359  1.00272426 50070
BEIDOU-2 M3 (C11)       
1 38250U 12018A   25301.75972352 -.00000027  00000+0  00000+0 0  9999
2 38250  55.9576 312.6699 0024783 270.1541  89.5941  1.86229867 91631
BEIDOU-2 M4 (C12)       
1 38251U 12018B   25301.69189983 -.00000027  00000+0  00000+0 0  9993
2 38251  55.8596 311.9050 0015921 271.2577  88.5911  1.86232183 91632
BEIDOU-2 M6 (C14)       
1 38775U 12050B   25303.01374670  .00000013  00000+0  00000+0 0  9991
2 38775  56.3415  70.5178 0010455 352.5749   7.4067  1.86230864 89025
BEIDOU-2 G6 (C02)       
1 38953U 12059A   25303.98623759 -.00000162  00000+0  00000+0 0  9995
2 38953   3.8353  75.9163 0006393 297.9721 104.7855  1.00269963 47615
BEIDOU-3S IGSO-1S (C31) 
1 40549U 15019A   25297.52891953 -.00000131  00000+0  00000+0 0  9999
2 40549  49.6453 298.3029 0040504 197.6198 177.4401  1.00251575 38711
BEIDOU-3S M2S (C58)     
1 40748U 15037A   25304.04465155 -.00000023  00000+0  00000+0 0  9997
2 40748  55.0758 309.9296 0012944 261.4494  98.4343  1.86229153 69859
BEIDOU-3S M1S (C57)     
1 40749U 15037B   25301.05915706 -.00000029  00000+0  00000+0 0  9994
2 40749  55.0750 310.0224 0002906 350.9420   9.0803  1.86253993 69809
BEIDOU-3S IGSO-2S (C56) 
1 40938U 15053A   25303.84596605 -.00000143  00000+0  00000+0 0  9991
2 40938  49.5826 261.5147 0061447 189.5629 348.7980  1.00280057 37055
BEIDOU-2 IGSO-6 (C13)   
1 41434U 16021A   25303.73519997 -.00000148  00000+0  00000+0 0  9991
2 41434  59.9055  40.3329 0058272 229.2735 128.3001  1.00262310 35172
BEIDOU-2 G7 (C03)       
1 41586U 16037A   25304.23239101 -.00000341  00000+0  00000+0 0  9993
2 41586   1.6487  67.2104 0005454 335.2793 191.4820  1.00266927  4598
BEIDOU-3 M1 (C19)       
1 43001U 17069A   25303.85316891  .00000013  00000+0  00000+0 0  9997
2 43001  56.4902  70.6517 0007502 307.0331  52.8947  1.86231076 54337
BEIDOU-3 M2 (C20)       
1 43002U 17069B   25303.79147140  .00000013  00000+0  00000+0 0  9990
2 43002  56.4897  70.6891 0005438 344.4977  15.4821  1.86230764 54321
BEIDOU-3 M7 (C27)       
1 43107U 18003A   25304.07210883 -.00000025  00000+0  00000+0 0  9996
2 43107  54.5340 310.2989 0002261  84.0273 276.0292  1.86232441 53080
BEIDOU-3 M8 (C28)       
1 43108U 18003B   25304.01666620 -.00000025  00000+0  00000+0 0  9995
2 43108  54.5268 310.2838 0005022 265.5220  94.4513  1.86230906 53092
BEIDOU-3 M4 (C22)       
1 43207U 18018A   25302.84749810  .00000014  00000+0  00000+0 0  9990
2 43207  56.4482  70.7567 0004376  33.2483 326.7764  1.86231051 52450
BEIDOU-3 M3 (C21)       
1 43208U 18018B   25302.37710056  .00000013  00000+0  00000+0 0  9998
2 43208  56.4472  70.7763 0005146 325.9706  33.9934  1.86231192 52444
BEIDOU-3 M9 (C29)       
1 43245U 18029A   25303.66694983 -.00000022  00000+0  00000+0 0  9995
2 43245  54.4047 307.9710 0002215 258.0668 101.9359  1.86232661 51623
BEIDOU-3 M10 (C30)      
1 43246U 18029B   25304.13920098 -.00000023  00000+0  00000+0 0  9999
2 43246  54.4013 307.9811 0003327 354.3682   5.6556  1.86229060 51617
BEIDOU-2 IGSO-7 (C16)   
1 43539U 18057A   25303.47456056 -.00000086  00000+0  00000+0 0  9998
2 43539  55.1689 165.0520 0091908 235.5210 281.8056  1.00270305 26820
BEIDOU-3 M5 (C23)       
1 43581U 18062A   25303.82704046  .00000030  00000+0  00000+0 0  9993
2 43581  54.0901 190.1041 0002686 326.7850  33.2766  1.86228691 49363
BEIDOU-3 M6 (C24)       
1 43582U 18062B   25301.00559442  .00000018  00000+0  00000+0 0  9996
2 43582  54.0899 190.1891 0006987  36.9823 323.1472  1.86229901 49316
BEIDOU-3 M12 (C26)      
1 43602U 18067A   25300.94291690  .00000019  00000+0  00000+0 0  9995
2 43602  54.1837 188.9177 0008796  36.4592 323.6836  1.86227655 48796
BEIDOU-3 M11 (C25)      
1 43603U 18067B   25303.76210559  .00000032  00000+0  00000+0 0  9999
2 43603  54.1810 188.7862 0005294  30.2260 329.8846  1.86227145 48873
BEIDOU-3 M13 (C32)      
1 43622U 18072A   25304.25592556  .00000011  00000+0  00000+0 0  9998
2 43622  56.4229  70.2267 0004380 304.7664  55.1881  1.86230911 48399
BEIDOU-3 M14 (C33)      
1 43623U 18072B   25302.51053097  .00000012  00000+0  00000+0 0  9999
2 43623  56.4233  70.2784 0002569   2.1169 357.8813  1.86230960 48352
BEIDOU-3 M16 (C35)      
1 43647U 18078A   25303.20594247 -.00000023  00000+0  00000+0 0  9998
2 43647  54.3010 308.0433 0006288  17.3853 342.6637  1.86232284 47874
BEIDOU-3 M15 (C34)      
1 43648U 18078B   25303.33513523 -.00000023  00000+0  00000+0 0  9991
2 43648  54.2967 308.0399 0002886  15.6223 344.4142  1.86232211 47891
BEIDOU-3 G1 (C59)       
1 43683U 18085A   25304.21136946 -.00000264  00000+0  00000+0 0  9993
2 43683   2.4968 104.3883 0002750  44.3836 107.1251  1.00276356 25761
BEIDOU-3 M17 (C36)      
1 43706U 18093A   25304.07041628  .00000032  00000+0  00000+0 0  9996
2 43706  54.1735 190.0711 0007272 302.0881  85.0731  1.86228276 47272
BEIDOU-3 M18 (C37)      
1 43707U 18093B   25303.35418041  .00000026  00000+0  00000+0 0  9997
2 43707  54.1742 190.0871 0006768 341.0960  18.9572  1.86229977 47253
BEIDOU-3 IGSO-1 (C38)   
1 44204U 19023A   25303.74874227 -.00000212  00000+0  00000+0 0  9997
2 44204  58.3732  40.0242 0026462 218.8682 166.9069  1.00257458  4914
BEIDOU-2 G8 (C01)       
1 44231U 19027A   25304.30893050 -.00000235  00000+0  00000+0 0  9994
2 44231   1.5496  74.5389 0007094 257.6624 323.3987  1.00274887 23781
BEIDOU-3 IGSO-2 (C39)   
1 44337U 19035A   25303.47638949 -.00000084  00000+0  00000+0 0  9993
2 44337  55.2164 160.8837 0037368 202.2865 326.2383  1.00284792 23365
BEIDOU-3 M24 (C46)      
1 44542U 19061A   25303.96268833  .00000031  00000+0  00000+0 0  9996
2 44542  54.4010 190.4603 0009288  16.8166 343.2926  1.86229380 41523
BEIDOU-3 M23 (C45)      
1 44543U 19061B   25304.09264311  .00000032  00000+0  00000+0 0  9990
2 44543  54.3996 190.4244 0005846  11.2067 348.8504  1.86229401 41530
BEIDOU-3 IGSO-3 (C40)   
1 44709U 19073A   25303.35306553 -.00000168  00000+0  00000+0 0  9991
2 44709  55.1994 283.3832 0044950 191.9507 167.9099  1.00256684 22155
BEIDOU-3 M22 (C44)      
1 44793U 19078A   25303.26629587 -.00000023  00000+0  00000+0 0  9994
2 44793  54.1475 307.9117 0004940  22.2688 337.7799  1.86232057 40360
BEIDOU-3 M21 (C43)      
1 44794U 19078B   25301.79208535 -.00000026  00000+0  00000+0 0  9990
2 44794  54.1221 307.9293 0003147   7.0137 353.0162  1.86227765 40346
BEIDOU-3 M19 (C41)      
1 44864U 19090A   25303.64498657  .00000013  00000+0  00000+0 0  9999
2 44864  56.3560  70.3911 0016270 284.5611  73.0972  1.86231404 39950
BEIDOU-3 M20 (C42)      
1 44865U 19090B   25303.51178001  .00000013  00000+0  00000+0 0  9994
2 44865  56.3576  70.4297 0013458 298.6477  59.3184  1.86231383 39933
BEIDOU-3 G2 (C60)       
1 45344U 20017A   25304.12810326 -.00000130  00000+0  00000+0 0  9990
2 45344   2.9184  42.9307 0002938 260.3528 222.5766  1.00272732 20960
BEIDOU-3 G3 (C61)       
1 45807U 20040A   25304.22684167 -.00000342  00000+0  00000+0 0  9998
2 45807   1.8837  66.1300 0004488 311.6836 214.2193  1.00273303 19776
BEIDOU-3 G4 (C62)       
1 56564U 23066A   25304.29627924 -.00000102  00000+0  00000+0 0  9990
2 56564   0.9134 298.7599 0004561 223.0346 144.7416  1.00272722  9100
BEIDOU-3 M28 (C50)      
1 58654U 23207A   25303.48146377  .00000010  00000+0  00000+0 0  9994
2 58654  55.5470  70.0656 0000757 237.4061 122.5839  1.86229737 12561
BEIDOU-3 M26 (C48)      
1 58655U 23207B   25303.81641252  .00000010  00000+0  00000+0 0  9994
2 58655  55.5495  70.0405 0002361 234.0639 125.9111  1.86231283 12556
BEIDOU-3 M25 (C47)      
1 61186U 24168B   25304.18578712 -.00000024  00000+0  00000+0 0  9991
2 61186  54.6796 310.1959 0005545 286.3484  78.3270  1.86230049  7527
BEIDOU-3 M27 (C49)      
1 61187U 24168C   25303.00189832 -.00000024  00000+0  00000+0 0  9993
2 61187  54.6760 310.2206 0001930 312.5709 113.2909  1.86230237  4974
